IRIDIUM 33 DEB          
1 38243U 97051ZT  17346.53723723  .00003378  00000-0  74191-3 0  9991
2 38243  86.3790 190.4361 0045065 248.9986 110.6399 14.56681124376200
